[Satellite]
VERSION=1.1
NAME=RADUGA 29 [-]
NICKNAME=RADUGA 29 [-]
TLE1=1 22557U 93013A   15054.97408177  .00000082  00000-0  00000+0 0  9994
TLE2=2 22557  14.3930  22.8387 0003057  62.0203 108.6324  1.00174977 80267
